{
  "type": "FeatureCollection",
  "features": [
    {
      "type": "Feature",
      "properties": {
        "norad_id": 32376,
        "name": "COSMO-SKYMED 2",
        "group": "resource",
        "lat": 30.087379841455004,
        "lon": 5.219307608542795,
        "alt_km": 620.6639707008071,
        "timestamp": "2025-12-25T11:37:44.078301+00:00",
        "meta_object_name": "COSMO-SKYMED 2",
        "meta_object_id": "2007-059A",
        "meta_epoch": "2025-12-25T04:28:32.700576",
        "meta_mean_motion": 14.82157555,
        "meta_eccentricity": 0.0001309,
        "meta_inclination": 97.8806,
        "meta_ra_of_asc_node": 180.3229,
        "meta_arg_of_pericenter": 82.3914,
        "meta_mean_anomaly": 277.7448,
        "meta_ephemeris_type": 0,
        "meta_classification_type": "U",
        "meta_norad_cat_id": 32376,
        "meta_element_set_no": 999,
        "meta_rev_at_epoch": 97622,
        "meta_bstar": 7.6003e-05,
        "meta_mean_motion_dot": 5.53e-06,
        "meta_mean_motion_ddot": 0,
        "tle_line1": "1 32376U 07059A   25359.18648959  .00000553  00000+0  76003-4 0  9998",
        "tle_line2": "2 32376  97.8806 180.3229 0001309  82.3914 277.7448 14.82157555976224"
      },
      "geometry": {
        "type": "Point",
        "coordinates": [
          5.219307608542795,
          30.087379841455004
        ]
      }
    },
    {
      "type": "Feature",
      "properties": {
        "norad_id": 32382,
        "name": "RADARSAT-2",
        "group": "resource",
        "lat": -48.187977967033596,
        "lon": 174.17232826751157,
        "alt_km": 799.2458532131868,
        "timestamp": "2025-12-25T11:37:44.078311+00:00",
        "meta_object_name": "RADARSAT-2",
        "meta_object_id": "2007-061A",
        "meta_epoch": "2025-12-25T03:50:41.686080",
        "meta_mean_motion": 14.29984786,
        "meta_eccentricity": 0.0001131,
        "meta_inclination": 98.5796,
        "meta_ra_of_asc_node": 3.5695,
        "meta_arg_of_pericenter": 85.6466,
        "meta_mean_anomaly": 274.4846,
        "meta_ephemeris_type": 0,
        "meta_classification_type": "U",
        "meta_norad_cat_id": 32382,
        "meta_element_set_no": 999,
        "meta_rev_at_epoch": 94108,
        "meta_bstar": 2.3314e-05,
        "meta_mean_motion_dot": 1.6e-07,
        "meta_mean_motion_ddot": 0,
        "tle_line1": "1 32382U 07061A   25359.16020470  .00000016  00000+0  23314-4 0  9999",
        "tle_line2": "2 32382  98.5796   3.5695 0001131  85.6466 274.4846 14.29984786941088"
      },
      "geometry": {
        "type": "Point",
        "coordinates": [
          174.17232826751157,
          -48.187977967033596
        ]
      }
    },
    {
      "type": "Feature",
      "properties": {
        "norad_id": 32783,
        "name": "CARTOSAT-2A",
        "group": "resource",
        "lat": 37.333761722637426,
        "lon": -125.09724690353394,
        "alt_km": 637.6176696249031,
        "timestamp": "2025-12-25T11:37:44.078321+00:00",
        "meta_object_name": "CARTOSAT-2A",
        "meta_object_id": "2008-021A",
        "meta_epoch": "2025-12-25T04:29:34.251072",
        "meta_mean_motion": 14.78954815,
        "meta_eccentricity": 0.0010926,
        "meta_inclination": 97.7909,
        "meta_ra_of_asc_node": 48.6206,
        "meta_arg_of_pericenter": 323.1692,
        "meta_mean_anomaly": 36.8768,
        "meta_ephemeris_type": 0,
        "meta_classification_type": "U",
        "meta_norad_cat_id": 32783,
        "meta_element_set_no": 999,
        "meta_rev_at_epoch": 95308,
        "meta_bstar": 0.00016185,
        "meta_mean_motion_dot": 1.145e-05,
        "meta_mean_motion_ddot": 0,
        "tle_line1": "1 32783U 08021A   25359.18720198  .00001145  00000+0  16185-3 0  9998",
        "tle_line2": "2 32783  97.7909  48.6206 0010926 323.1692  36.8768 14.78954815953081"
      },
      "geometry": {
        "type": "Point",
        "coordinates": [
          -125.09724690353394,
          37.333761722637426
        ]
      }
    },
    {
      "type": "Feature",
      "properties": {
        "norad_id": 33320,
        "name": "HUANJING 1A (HJ-1A)",
        "group": "resource",
        "lat": -31.719853182546455,
        "lon": 162.48261486004458,
        "alt_km": 635.17033213789,
        "timestamp": "2025-12-25T11:37:44.078331+00:00",
        "meta_object_name": "HUANJING 1A (HJ-1A)",
        "meta_object_id": "2008-041A",
        "meta_epoch": "2025-12-25T05:49:08.863680",
        "meta_mean_motion": 14.83431218,
        "meta_eccentricity": 0.0019234,
        "meta_inclination": 97.6549,
        "meta_ra_of_asc_node": 347.0191,
        "meta_arg_of_pericenter": 354.464,
        "meta_mean_anomaly": 5.6359,
        "meta_ephemeris_type": 0,
        "meta_classification_type": "U",
        "meta_norad_cat_id": 33320,
        "meta_element_set_no": 999,
        "meta_rev_at_epoch": 93261,
        "meta_bstar": 0.00018487,
        "meta_mean_motion_dot": 1.471e-05,
        "meta_mean_motion_ddot": 0,
        "tle_line1": "1 33320U 08041A   25359.24246370  .00001471  00000+0  18487-3 0  9999",
        "tle_line2": "2 33320  97.6549 347.0191 0019234 354.4640   5.6359 14.83431218932617"
      },
      "geometry": {
        "type": "Point",
        "coordinates": [
          162.48261486004458,
          -31.719853182546455
        ]
      }
    },
    {
      "type": "Feature",
      "properties": {
        "norad_id": 33321,
        "name": "HUANJING 1B (HJ-1B)",
        "group": "resource",
        "lat": 46.22152509983623,
        "lon": -17.138446314958472,
        "alt_km": 590.4509672794893,
        "timestamp": "2025-12-25T11:37:44.078343+00:00",
        "meta_object_name": "HUANJING 1B (HJ-1B)",
        "meta_object_id": "2008-041B",
        "meta_epoch": "2025-12-25T04:56:32.293248",
        "meta_mean_motion": 14.82854123,
        "meta_eccentricity": 0.0037706,
        "meta_inclination": 97.6406,
        "meta_ra_of_asc_node": 350.6483,
        "meta_arg_of_pericenter": 36.2647,
        "meta_mean_anomaly": 324.1112,
        "meta_ephemeris_type": 0,
        "meta_classification_type": "U",
        "meta_norad_cat_id": 33321,
        "meta_element_set_no": 999,
        "meta_rev_at_epoch": 93262,
        "meta_bstar": 0.00023256,
        "meta_mean_motion_dot": 1.855e-05,
        "meta_mean_motion_ddot": 0,
        "tle_line1": "1 33321U 08041B   25359.20592932  .00001855  00000+0  23256-3 0  9990",
        "tle_line2": "2 33321  97.6406 350.6483 0037706  36.2647 324.1112 14.82854123932620"
      },
      "geometry": {
        "type": "Point",
        "coordinates": [
          -17.138446314958472,
          46.22152509983623
        ]
      }
    },
    {
      "type": "Feature",
      "properties": {
        "norad_id": 33331,
        "name": "GEOEYE 1",
        "group": "resource",
        "lat": -74.0494531025797,
        "lon": 100.58809059371123,
        "alt_km": 684.0426399070793,
        "timestamp": "2025-12-25T11:37:44.078353+00:00",
        "meta_object_name": "GEOEYE 1",
        "meta_object_id": "2008-042A",
        "meta_epoch": "2025-12-25T02:08:21.698592",
        "meta_mean_motion": 14.64716376,
        "meta_eccentricity": 0.0003001,
        "meta_inclination": 98.1237,
        "meta_ra_of_asc_node": 70.2135,
        "meta_arg_of_pericenter": 231.2616,
        "meta_mean_anomaly": 128.8319,
        "meta_ephemeris_type": 0,
        "meta_classification_type": "U",
        "meta_norad_cat_id": 33331,
        "meta_element_set_no": 999,
        "meta_rev_at_epoch": 92466,
        "meta_bstar": 0.00012284,
        "meta_mean_motion_dot": 6.06e-06,
        "meta_mean_motion_ddot": 0,
        "tle_line1": "1 33331U 08042A   25359.08914003  .00000606  00000+0  12284-3 0  9997",
        "tle_line2": "2 33331  98.1237  70.2135 0003001 231.2616 128.8319 14.64716376924662"
      },
      "geometry": {
        "type": "Point",
        "coordinates": [
          100.58809059371123,
          -74.0494531025797
        ]
      }
    },
    {
      "type": "Feature",
      "properties": {
        "norad_id": 33396,
        "name": "THEOS",
        "group": "resource",
        "lat": -73.74257201651118,
        "lon": -154.0009779960938,
        "alt_km": 833.1233483095502,
        "timestamp": "2025-12-25T11:37:44.078364+00:00",
        "meta_object_name": "THEOS",
        "meta_object_id": "2008-049A",
        "meta_epoch": "2025-12-25T03:39:45.431424",
        "meta_mean_motion": 14.20099185,
        "meta_eccentricity": 0.0001183,
        "meta_inclination": 98.5845,
        "meta_ra_of_asc_node": 56.875,
        "meta_arg_of_pericenter": 93.974,
        "meta_mean_anomaly": 266.1572,
        "meta_ephemeris_type": 0,
        "meta_classification_type": "U",
        "meta_norad_cat_id": 33396,
        "meta_element_set_no": 999,
        "meta_rev_at_epoch": 89326,
        "meta_bstar": 9.0086e-05,
        "meta_mean_motion_dot": 1.49e-06,
        "meta_mean_motion_ddot": 0,
        "tle_line1": "1 33396U 08049A   25359.15260916  .00000149  00000+0  90086-4 0  9999",
        "tle_line2": "2 33396  98.5845  56.8750 0001183  93.9740 266.1572 14.20099185893267"
      },
      "geometry": {
        "type": "Point",
        "coordinates": [
          -154.0009779960938,
          -73.74257201651118
        ]
      }
    }
  ]
}